STARLINK-36259          
1 67106U 25299E   25364.91670139 -.01921084  00000+0 -25569-1 0  9997
2 67106  42.9989 205.7430 0001561 264.2389  33.7785 15.60626320  3738
STARLINK-36196          
1 67107U 25299F   25364.91670139 -.01920042  00000+0 -25560-1 0  9992
2 67107  42.9990 205.7481 0001553 262.6922  33.4649 15.60619690  3731
STARLINK-36208          
1 67108U 25299G   25364.91670139 -.01920410  00000+0 -25551-1 0  9992
2 67108  42.9988 205.7384 0001569 262.6373  37.2321 15.60634620  3737
STARLINK-35764          
1 67109U 25299H   25364.91670139 -.01917364  00000+0 -25503-1 0  9994
2 67109  42.9988 205.7340 0001584 261.9420  39.8223 15.60635940  3625
STARLINK-35781          
1 67110U 25299J   25364.91670139 -.01924065  00000+0 -25592-1 0  9990
2 67110  42.9990 205.7244 0001582 267.2151  38.3053 15.60648213  3689
STARLINK-35875          
1 67111U 25299K   25364.91670139 -.01921951  00000+0 -25568-1 0  9995
2 67111  42.9988 205.7295 0001545 261.4340  42.2252 15.60640295  3629
STARLINK-35906          
1 67112U 25299L   25364.91670139 -.01924606  00000+0 -25585-1 0  9995
2 67112  42.9988 205.7203 0001597 266.4198  40.8856 15.60663711  3624
STARLINK-35789          
1 67113U 25299M   25364.91670139 -.01922979  00000+0 -25550-1 0  9999
2 67113  42.9988 205.7154 0001585 264.3704  44.7491 15.60674245  3629
STARLINK-36180          
1 67114U 25299N   25364.91670139 -.01924469  00000+0 -25568-1 0  9995
2 67114  42.9986 205.7110 0001559 264.2388  46.7680 15.60679222  3732
STARLINK-35892          
1 67115U 25299P   25364.86110793 -.00781805  00000+0 -98183-2 0  9993
2 67115  42.9977 206.0334 0003213 308.0119  52.0455 15.61367604  2494
STARLINK-35738          
1 67116U 25299Q   25364.91670139 -.01919233  00000+0 -25478-1 0  9990
2 67116  42.9988 205.7009 0001617 263.9690  50.7625 15.60688963  3624
STARLINK-35674          
1 67117U 25299R   25364.91670139 -.01924369  00000+0 -25547-1 0  9994
2 67117  42.9989 205.6971 0001574 267.0893  49.4971 15.60697977  3528
