CCSDS_OMM_VERS = 2.0
CREATION_DATE  = 
ORIGINATOR     = 

OBJECT_NAME    = STARLINK-36259
OBJECT_ID      = 2025-299E
CENTER_NAME    = EARTH
REF_FRAME      = TEME
TIME_SYSTEM    = UTC
MEAN_ELEMENT_THEORY = SGP/SGP4

EPOCH          = 2025-12-30T22:00:03.000096
MEAN_MOTION    = 15.60626320
ECCENTRICITY   = .00015617
INCLINATION    = 42.9989
RA_OF_ASC_NODE = 205.7430
ARG_OF_PERICENTER = 264.2389
MEAN_ANOMALY   = 33.7785

EPHEMERIS_TYPE = 0
CLASSIFICATION_TYPE = U
NORAD_CAT_ID   = 67106
ELEMENT_SET_NO = 999
REV_AT_EPOCH   = 373
BSTAR          = -.25569136E-1
MEAN_MOTION_DOT = -.1921084E-1
MEAN_MOTION_DDOT = 0

CCSDS_OMM_VERS = 2.0
CREATION_DATE  = 
ORIGINATOR     = 

OBJECT_NAME    = STARLINK-36196
OBJECT_ID      = 2025-299F
CENTER_NAME    = EARTH
REF_FRAME      = TEME
TIME_SYSTEM    = UTC
MEAN_ELEMENT_THEORY = SGP/SGP4

EPOCH          = 2025-12-30T22:00:03.000096
MEAN_MOTION    = 15.60619690
ECCENTRICITY   = .00015538
INCLINATION    = 42.9990
RA_OF_ASC_NODE = 205.7481
ARG_OF_PERICENTER = 262.6922
MEAN_ANOMALY   = 33.4649

EPHEMERIS_TYPE = 0
CLASSIFICATION_TYPE = U
NORAD_CAT_ID   = 67107
ELEMENT_SET_NO = 999
REV_AT_EPOCH   = 373
BSTAR          = -.25560087E-1
MEAN_MOTION_DOT = -.1920042E-1
MEAN_MOTION_DDOT = 0

CCSDS_OMM_VERS = 2.0
CREATION_DATE  = 
ORIGINATOR     = 

OBJECT_NAME    = STARLINK-36208
OBJECT_ID      = 2025-299G
CENTER_NAME    = EARTH
REF_FRAME      = TEME
TIME_SYSTEM    = UTC
MEAN_ELEMENT_THEORY = SGP/SGP4

EPOCH          = 2025-12-30T22:00:03.000096
MEAN_MOTION    = 15.60634620
ECCENTRICITY   = .00015694
INCLINATION    = 42.9988
RA_OF_ASC_NODE = 205.7384
ARG_OF_PERICENTER = 262.6373
MEAN_ANOMALY   = 37.2321

EPHEMERIS_TYPE = 0
CLASSIFICATION_TYPE = U
NORAD_CAT_ID   = 67108
ELEMENT_SET_NO = 999
REV_AT_EPOCH   = 373
BSTAR          = -.25550621E-1
MEAN_MOTION_DOT = -.192041E-1
MEAN_MOTION_DDOT = 0

CCSDS_OMM_VERS = 2.0
CREATION_DATE  = 
ORIGINATOR     = 

OBJECT_NAME    = STARLINK-35764
OBJECT_ID      = 2025-299H
CENTER_NAME    = EARTH
REF_FRAME      = TEME
TIME_SYSTEM    = UTC
MEAN_ELEMENT_THEORY = SGP/SGP4

EPOCH          = 2025-12-30T22:00:03.000096
MEAN_MOTION    = 15.60635940
ECCENTRICITY   = .00015845
INCLINATION    = 42.9988
RA_OF_ASC_NODE = 205.7340
ARG_OF_PERICENTER = 261.9420
MEAN_ANOMALY   = 39.8223

EPHEMERIS_TYPE = 0
CLASSIFICATION_TYPE = U
NORAD_CAT_ID   = 67109
ELEMENT_SET_NO = 999
REV_AT_EPOCH   = 362
BSTAR          = -.25503222E-1
MEAN_MOTION_DOT = -.1917364E-1
MEAN_MOTION_DDOT = 0

CCSDS_OMM_VERS = 2.0
CREATION_DATE  = 
ORIGINATOR     = 

OBJECT_NAME    = STARLINK-35781
OBJECT_ID      = 2025-299J
CENTER_NAME    = EARTH
REF_FRAME      = TEME
TIME_SYSTEM    = UTC
MEAN_ELEMENT_THEORY = SGP/SGP4

EPOCH          = 2025-12-30T22:00:03.000096
MEAN_MOTION    = 15.60648213
ECCENTRICITY   = .00015827
INCLINATION    = 42.9990
RA_OF_ASC_NODE = 205.7244
ARG_OF_PERICENTER = 267.2151
MEAN_ANOMALY   = 38.3053

EPHEMERIS_TYPE = 0
CLASSIFICATION_TYPE = U
NORAD_CAT_ID   = 67110
ELEMENT_SET_NO = 999
REV_AT_EPOCH   = 368
BSTAR          = -.2559211E-1
MEAN_MOTION_DOT = -.1924065E-1
MEAN_MOTION_DDOT = 0

CCSDS_OMM_VERS = 2.0
CREATION_DATE  = 
ORIGINATOR     = 

OBJECT_NAME    = STARLINK-35875
OBJECT_ID      = 2025-299K
CENTER_NAME    = EARTH
REF_FRAME      = TEME
TIME_SYSTEM    = UTC
MEAN_ELEMENT_THEORY = SGP/SGP4

EPOCH          = 2025-12-30T22:00:03.000096
MEAN_MOTION    = 15.60640295
ECCENTRICITY   = .00015453
INCLINATION    = 42.9988
RA_OF_ASC_NODE = 205.7295
ARG_OF_PERICENTER = 261.4340
MEAN_ANOMALY   = 42.2252

EPHEMERIS_TYPE = 0
CLASSIFICATION_TYPE = U
NORAD_CAT_ID   = 67111
ELEMENT_SET_NO = 999
REV_AT_EPOCH   = 362
BSTAR          = -.25568478E-1
MEAN_MOTION_DOT = -.1921951E-1
MEAN_MOTION_DDOT = 0

CCSDS_OMM_VERS = 2.0
CREATION_DATE  = 
ORIGINATOR     = 

OBJECT_NAME    = STARLINK-35906
OBJECT_ID      = 2025-299L
CENTER_NAME    = EARTH
REF_FRAME      = TEME
TIME_SYSTEM    = UTC
MEAN_ELEMENT_THEORY = SGP/SGP4

EPOCH          = 2025-12-30T22:00:03.000096
MEAN_MOTION    = 15.60663711
ECCENTRICITY   = .00015975
INCLINATION    = 42.9988
RA_OF_ASC_NODE = 205.7203
ARG_OF_PERICENTER = 266.4198
MEAN_ANOMALY   = 40.8856

EPHEMERIS_TYPE = 0
CLASSIFICATION_TYPE = U
NORAD_CAT_ID   = 67112
ELEMENT_SET_NO = 999
REV_AT_EPOCH   = 362
BSTAR          = -.25584669E-1
MEAN_MOTION_DOT = -.1924606E-1
MEAN_MOTION_DDOT = 0

CCSDS_OMM_VERS = 2.0
CREATION_DATE  = 
ORIGINATOR     = 

OBJECT_NAME    = STARLINK-35789
OBJECT_ID      = 2025-299M
CENTER_NAME    = EARTH
REF_FRAME      = TEME
TIME_SYSTEM    = UTC
MEAN_ELEMENT_THEORY = SGP/SGP4

EPOCH          = 2025-12-30T22:00:03.000096
MEAN_MOTION    = 15.60674245
ECCENTRICITY   = .0001585
INCLINATION    = 42.9988
RA_OF_ASC_NODE = 205.7154
ARG_OF_PERICENTER = 264.3704
MEAN_ANOMALY   = 44.7491

EPHEMERIS_TYPE = 0
CLASSIFICATION_TYPE = U
NORAD_CAT_ID   = 67113
ELEMENT_SET_NO = 999
REV_AT_EPOCH   = 362
BSTAR          = -.25549801E-1
MEAN_MOTION_DOT = -.1922979E-1
MEAN_MOTION_DDOT = 0

CCSDS_OMM_VERS = 2.0
CREATION_DATE  = 
ORIGINATOR     = 

OBJECT_NAME    = STARLINK-36180
OBJECT_ID      = 2025-299N
CENTER_NAME    = EARTH
REF_FRAME      = TEME
TIME_SYSTEM    = UTC
MEAN_ELEMENT_THEORY = SGP/SGP4

EPOCH          = 2025-12-30T22:00:03.000096
MEAN_MOTION    = 15.60679222
ECCENTRICITY   = .00015591
INCLINATION    = 42.9986
RA_OF_ASC_NODE = 205.7110
ARG_OF_PERICENTER = 264.2388
MEAN_ANOMALY   = 46.7680

EPHEMERIS_TYPE = 0
CLASSIFICATION_TYPE = U
NORAD_CAT_ID   = 67114
ELEMENT_SET_NO = 999
REV_AT_EPOCH   = 373
BSTAR          = -.25567566E-1
MEAN_MOTION_DOT = -.1924469E-1
MEAN_MOTION_DDOT = 0

CCSDS_OMM_VERS = 2.0
CREATION_DATE  = 
ORIGINATOR     = 

OBJECT_NAME    = STARLINK-35892
OBJECT_ID      = 2025-299P
CENTER_NAME    = EARTH
REF_FRAME      = TEME
TIME_SYSTEM    = UTC
MEAN_ELEMENT_THEORY = SGP/SGP4

EPOCH          = 2025-12-30T20:39:59.725152
MEAN_MOTION    = 15.61367604
ECCENTRICITY   = .0003213
INCLINATION    = 42.9977
RA_OF_ASC_NODE = 206.0334
ARG_OF_PERICENTER = 308.0119
MEAN_ANOMALY   = 52.0455

EPHEMERIS_TYPE = 0
CLASSIFICATION_TYPE = U
NORAD_CAT_ID   = 67115
ELEMENT_SET_NO = 999
REV_AT_EPOCH   = 249
BSTAR          = -.9818328E-2
MEAN_MOTION_DOT = -.781805E-2
MEAN_MOTION_DDOT = 0

CCSDS_OMM_VERS = 2.0
CREATION_DATE  = 
ORIGINATOR     = 

OBJECT_NAME    = STARLINK-35738
OBJECT_ID      = 2025-299Q
CENTER_NAME    = EARTH
REF_FRAME      = TEME
TIME_SYSTEM    = UTC
MEAN_ELEMENT_THEORY = SGP/SGP4

EPOCH          = 2025-12-30T22:00:03.000096
MEAN_MOTION    = 15.60688963
ECCENTRICITY   = .0001617
INCLINATION    = 42.9988
RA_OF_ASC_NODE = 205.7009
ARG_OF_PERICENTER = 263.9690
MEAN_ANOMALY   = 50.7625

EPHEMERIS_TYPE = 0
CLASSIFICATION_TYPE = U
NORAD_CAT_ID   = 67116
ELEMENT_SET_NO = 999
REV_AT_EPOCH   = 362
BSTAR          = -.25478428E-1
MEAN_MOTION_DOT = -.1919233E-1
MEAN_MOTION_DDOT = 0

CCSDS_OMM_VERS = 2.0
CREATION_DATE  = 
ORIGINATOR     = 

OBJECT_NAME    = STARLINK-35674
OBJECT_ID      = 2025-299R
CENTER_NAME    = EARTH
REF_FRAME      = TEME
TIME_SYSTEM    = UTC
MEAN_ELEMENT_THEORY = SGP/SGP4

EPOCH          = 2025-12-30T22:00:03.000096
MEAN_MOTION    = 15.60697977
ECCENTRICITY   = .00015746
INCLINATION    = 42.9989
RA_OF_ASC_NODE = 205.6971
ARG_OF_PERICENTER = 267.0893
MEAN_ANOMALY   = 49.4971

EPHEMERIS_TYPE = 0
CLASSIFICATION_TYPE = U
NORAD_CAT_ID   = 67117
ELEMENT_SET_NO = 999
REV_AT_EPOCH   = 352
BSTAR          = -.25547235E-1
MEAN_MOTION_DOT = -.1924369E-1
MEAN_MOTION_DDOT = 0

